TDRS 3                  
1 19548U 88091B   26188.31780601 -.00000291  00000+0  00000+0 0  9995
2 19548  12.5868 340.8629 0036884 355.8961  13.9494  1.00265936125591
FLTSATCOM 8 (USA 46)    
1 20253U 89077A   26188.31258257 -.00000359  00000+0  00000+0 0  9997
2 20253  12.4157 351.0418 0003654  65.5622 106.8777  1.00267077260767
SKYNET 4C               
1 20776U 90079A   26188.53582564  .00000013  00000+0  00000+0 0  9992
2 20776  13.3318 349.6808 0003150 134.8450 231.6659  0.98576230   243
TDRS 5                  
1 21639U 91054B   26188.54417634  .00000091  00000+0  00000+0 0  9997
2 21639  14.0685 353.6226 0007108 256.7103  63.3915  1.00270846127919
TDRS 6                  
1 22314U 93003B   26188.37062278 -.00000289  00000+0  00000+0 0  9995
2 22314  14.1830 356.9078 0009028 180.2249 195.4577  1.00263978122610
UFO 2 (USA 95)          
1 22787U 93056A   26187.65172553  .00000133  00000+0  00000+0 0  9992
2 22787  11.9014   3.4464 0003975   9.9975 174.5391  1.00277966118747
USA 99 (MILSTAR-1 1)    
1 22988U 94009A   26188.56203552  .00000015  00000+0  00000+0 0  9998
2 22988  17.6554  27.4916 0001557 188.3755 163.2836  0.98720164 33140
UFO 4 (USA 108)         
1 23467U 95003A   26188.32168000 -.00000012  00000+0  00000+0 0  9996
2 23467   9.6830  13.0656 0003061  89.1450 111.1537  1.00274976115156
TDRS 7                  
1 23613U 95035B   26188.47614036 -.00000233  00000+0  00000+0 0  9990
2 23613  13.3686 348.0495 0011682  84.1811 113.8080  1.00275941113452
USA 115 (MILSTAR-1 2)   
1 23712U 95060A   26188.55543343 -.00000196  00000+0  00000+0 0  9997
2 23712  14.0797   3.5890 0006297 120.9531 270.9026  1.00271597 33098
INMARSAT 3-F1           
1 23839U 96020A   26188.56518779  .00000021  00000+0  00000+0 0  9996
2 23839  10.6423  46.4452 0004184  79.0581 246.7638  0.99978859110456
INMARSAT 3-F2           
1 24307U 96053A   26188.52706818 -.00000346  00000+0  00000+0 0  9993
2 24307   9.9017  53.7276 0006442  47.3680 143.5738  0.99995534109125
INMARSAT 3-F3           
1 24674U 96070A   26188.29178249  .00000093  00000+0  00000+0 0  9992
2 24674  10.3606  49.4588 0003410  64.5378 298.1940  0.99991987108115
USA 134                 
1 25019U 97065A   26188.56431829 -.00000055  00000+0  00000+0 0  9996
2 25019  12.8069  21.5633 0002341 338.9110  15.7702  1.00272234 33155
INMARSAT 3-F5           
1 25153U 98006B   26188.49082083 -.00000282  00000+0  00000+0 0  9999
2 25153   9.7355  53.0526 0003972  57.4589 297.6180  1.00267976104092
ABS-6                   
1 25924U 99053A   26187.96270303 -.00000103  00000+0  00000+0 0  9995
2 25924   0.0654 266.6861 0003425 184.1953 339.6560  1.00278444 98031
UFO 10 (USA 146)        
1 25967U 99063A   26188.35432713 -.00000179  00000+0  00000+0 0  9995
2 25967   9.8547  27.1038 0001283  96.5956 266.1988  1.00273889 97553
ASIASTAR                
1 26107U 00016A   26188.52230149 -.00000325  00000+0  00000+0 0  9993
2 26107   9.1737  57.9324 0003784  57.9610 102.6003  1.00275235 96120
USA 149 (DSP 20)        
1 26356U 00024A   26188.37574448  .00000103  00000+0  00000+0 0  9997
2 26356  13.1848  11.7018 0001433 300.0788 303.9715  1.00283560 33115
TDRS 8                  
1 26388U 00034A   26188.09051722 -.00000189  00000+0  00000+0 0  9992
2 26388  12.7143  31.1513 0004411  30.1842 341.1355  1.00273904 95382
NSS-11                  
1 26554U 00059A   26188.51393803  .00000039  00000+0  00000+0 0  9993
2 26554   2.1758  81.1535 0002885  28.2368 177.1063  1.00272277 41493
USA 153                 
1 26575U 00065A   26187.95776301 -.00000316  00000+0  00000+0 0  9997
2 26575  11.6572  35.2527 0002216  55.8077 313.0665  1.00274909 33132
AMC-6                   
1 26580U 00067A   26188.52930742  .00000103  00000+0  00000+0 0  9993
2 26580   0.2007  83.5938 0003855  35.6192 221.7975  1.00271386 94098
USA 157 (MILSTAR-2 2)   
1 26715U 01009A   26188.23267315  .00000117  00000+0  00000+0 0  9992
2 26715  11.5634  19.6320 0040422 178.7308  20.5055  1.00271182 33140
INTELSAT 902 (IS-902)   
1 26900U 01039A   26188.49142750 -.00000272  00000+0  00000+0 0  9997
2 26900   6.1673  71.5349 0004415  31.4521 309.2722  1.00272462 90896
USA 164 (MILSTAR-2 3)   
1 27168U 02001A   26188.22010477  .00000106  00000+0  00000+0 0  9990
2 27168  11.2021  21.7774 0098688   8.9588 352.6345  1.00274465 33168
INTELSAT 904 (IS-904)   
1 27380U 02007A   26188.49524087 -.00000214  00000+0  00000+0 0  9999
2 27380   6.9674  68.9385 0005649  20.5791 342.7553  1.00272979 51979
DIRECTV 5 (TEMPO 1)     
1 27426U 02023A   26188.45094175 -.00000045  00000+0  00000+0 0  9996
2 27426   4.9262  75.0587 0003143  33.3829 229.2125  1.00271114 88328
INTELSAT 905 (IS-905)   
1 27438U 02027A   26188.44558884  .00000105  00000+0  00000+0 0  9990
2 27438   6.8010  69.5535 0003705  40.9906 198.0798  1.00272011 51560
GALAXY 3C (G-3C)        
1 27445U 02030A   26188.44407551 -.00000140  00000+0  00000+0 0  9996
2 27445   3.7823  77.7148 0001675  35.7387 237.0025  1.00271324 46697
INTELSAT 906 (IS-906)   
1 27513U 02041A   26188.22903147  .00000025  00000+0  00000+0 0  9993
2 27513   5.8521  72.6749 0004011  15.3631 343.7400  1.00271515 87223
